{"type": "FeatureCollection", "features": [ {"type": "Feature", "properties": {"norad_id": 57401, "name": "TIANMU-1 09", "group": "weather", "lat": -82.47191218450294, "lon": 130.5170276186864, "alt_km": 493.8657863549224, "timestamp": "2025-12-02T13:52:16.919512+00:00", "meta": {"OBJECT_NAME": "TIANMU-1 09", "OBJECT_ID": "2023-101C", "EPOCH": "2025-12-02T06:24:51.388416", "MEAN_MOTION": 15.27837796, "ECCENTRICITY": 0.00067092, "INCLINATION": 97.2844, "RA_OF_ASC_NODE": 25.6686, "ARG_OF_PERICENTER": 112.4346, "MEAN_ANOMALY": 247.7605, "EPHEMERIS_TYPE": 0, "CLASSIFICATION_TYPE": "U", "NORAD_CAT_ID": 57401, "ELEMENT_SET_NO": 999, "REV_AT_EPOCH": 13155, "BSTAR": 0.00033210002, "MEAN_MOTION_DOT": 8.962e-05, "MEAN_MOTION_DDOT": 0}, "tle": {"line1": "1 57401U 23101C   25336.26726144  .00008962  00000+0  33210-3 0  9991", "line2": "2 57401  97.2844  25.6686 0006709 112.4346 247.7605 15.27837796131550"}}, "geometry": {"type": "Point", "coordinates": [130.5170276186864, -82.47191218450294]}}, {"type": "Feature", "properties": {"norad_id": 57402, "name": "TIANMU-1 10", "group": "weather", "lat": 77.85518652679639, "lon": -9.706582423165644, "alt_km": 470.11372739619674, "timestamp": "2025-12-02T13:52:16.919522+00:00", "meta": {"OBJECT_NAME": "TIANMU-1 10", "OBJECT_ID": "2023-101D", "EPOCH": "2025-12-02T07:14:02.584320", "MEAN_MOTION": 15.27828635, "ECCENTRICITY": 0.00084576, "INCLINATION": 97.2925, "RA_OF_ASC_NODE": 26.5408, "ARG_OF_PERICENTER": 113.6387, "MEAN_ANOMALY": 246.5742, "EPHEMERIS_TYPE": 0, "CLASSIFICATION_TYPE": "U", "NORAD_CAT_ID": 57402, "ELEMENT_SET_NO": 999, "REV_AT_EPOCH": 13155, "BSTAR": 0.0003461723, "MEAN_MOTION_DOT": 9.346e-05, "MEAN_MOTION_DDOT": 0}, "tle": {"line1": "1 57402U 23101D   25336.30141880  .00009346  00000+0  34617-3 0  9994", "line2": "2 57402  97.2925  26.5408 0008457 113.6387 246.5742 15.27828635131554"}}, "geometry": {"type": "Point", "coordinates": [-9.706582423165644, 77.85518652679639]}}, {"type": "Feature", "properties": {"norad_id": 57490, "name": "FENGYUN 3F", "group": "weather", "lat": -33.11945129881771, "lon": 50.77409555550523, "alt_km": 832.051912520843, "timestamp": "2025-12-02T13:52:16.919538+00:00", "meta": {"OBJECT_NAME": "FENGYUN 3F", "OBJECT_ID": "2023-111A", "EPOCH": "2025-12-02T07:15:51.049152", "MEAN_MOTION": 14.19889062, "ECCENTRICITY": 7.08e-05, "INCLINATION": 98.7096, "RA_OF_ASC_NODE": 44.7639, "ARG_OF_PERICENTER": 84.4207, "MEAN_ANOMALY": 275.705, "EPHEMERIS_TYPE": 0, "CLASSIFICATION_TYPE": "U", "NORAD_CAT_ID": 57490, "ELEMENT_SET_NO": 999, "REV_AT_EPOCH": 12092, "BSTAR": 8.1929648e-05, "MEAN_MOTION_DOT": 1.3e-06, "MEAN_MOTION_DDOT": 0}, "tle": {"line1": "1 57490U 23111A   25336.30267418  .00000130  00000+0  81930-4 0  9991", "line2": "2 57490  98.7096  44.7639 0000708  84.4207 275.7050 14.19889062120927"}}, "geometry": {"type": "Point", "coordinates": [50.77409555550523, -33.11945129881771]}}, {"type": "Feature", "properties": {"norad_id": 58584, "name": "ARKTIKA-M 2", "group": "weather", "lat": 63.05919297722298, "lon": -100.34777131537847, "alt_km": 38382.86705197757, "timestamp": "2025-12-02T13:52:16.919551+00:00", "meta": {"OBJECT_NAME": "ARKTIKA-M 2", "OBJECT_ID": "2023-198A", "EPOCH": "2025-12-01T08:43:04.634112", "MEAN_MOTION": 2.00605427, "ECCENTRICITY": 0.68640288, "INCLINATION": 63.2218, "RA_OF_ASC_NODE": 176.1298, "ARG_OF_PERICENTER": 268.1507, "MEAN_ANOMALY": 18.8441, "EPHEMERIS_TYPE": 0, "CLASSIFICATION_TYPE": "U", "NORAD_CAT_ID": 58584, "ELEMENT_SET_NO": 999, "REV_AT_EPOCH": 1435, "BSTAR": 0, "MEAN_MOTION_DOT": 2.37e-06, "MEAN_MOTION_DDOT": 0}, "tle": {"line1": "1 58584U 23198A   25335.36324808  .00000237  00000+0  00000+0 0  9995", "line2": "2 58584  63.2218 176.1298 6864028 268.1507  18.8441  2.00605427 14356"}}, "geometry": {"type": "Point", "coordinates": [-100.34777131537847, 63.05919297722298]}}, {"type": "Feature", "properties": {"norad_id": 58645, "name": "TIANMU-1 11", "group": "weather", "lat": 25.321091808292266, "lon": -7.125365080625713, "alt_km": 486.88410229044985, "timestamp": "2025-12-02T13:52:16.919562+00:00", "meta": {"OBJECT_NAME": "TIANMU-1 11", "OBJECT_ID": "2023-205A", "EPOCH": "2025-12-02T07:27:29.625984", "MEAN_MOTION": 15.24397794, "ECCENTRICITY": 0.00089667, "INCLINATION": 97.3616, "RA_OF_ASC_NODE": 356.1192, "ARG_OF_PERICENTER": 350.9926, "MEAN_ANOMALY": 9.115, "EPHEMERIS_TYPE": 0, "CLASSIFICATION_TYPE": "U", "NORAD_CAT_ID": 58645, "ELEMENT_SET_NO": 999, "REV_AT_EPOCH": 10750, "BSTAR": 0.00028954201, "MEAN_MOTION_DOT": 7.034e-05, "MEAN_MOTION_DDOT": 0}, "tle": {"line1": "1 58645U 23205A   25336.31075956  .00007034  00000+0  28954-3 0  9999", "line2": "2 58645  97.3616 356.1192 0008966 350.9926   9.1150 15.24397794107502"}}, "geometry": {"type": "Point", "coordinates": [-7.125365080625713, 25.321091808292266]}}, {"type": "Feature", "properties": {"norad_id": 58646, "name": "TIANMU-1 12", "group": "weather", "lat": -60.63480924511179, "lon": 162.90898298364755, "alt_km": 500.39906570670155, "timestamp": "2025-12-02T13:52:16.919573+00:00", "meta": {"OBJECT_NAME": "TIANMU-1 12", "OBJECT_ID": "2023-205B", "EPOCH": "2025-12-02T08:05:18.172896", "MEAN_MOTION": 15.24310694, "ECCENTRICITY": 0.00067434, "INCLINATION": 97.3604, "RA_OF_ASC_NODE": 355.9538, "ARG_OF_PERICENTER": 336.8385, "MEAN_ANOMALY": 23.2547, "EPHEMERIS_TYPE": 0, "CLASSIFICATION_TYPE": "U", "NORAD_CAT_ID": 58646, "ELEMENT_SET_NO": 999, "REV_AT_EPOCH": 10749, "BSTAR": 0.00033771363, "MEAN_MOTION_DOT": 8.192e-05, "MEAN_MOTION_DDOT": 0}, "tle": {"line1": "1 58646U 23205B   25336.33701589  .00008192  00000+0  33771-3 0  9999", "line2": "2 58646  97.3604 355.9538 0006743 336.8385  23.2547 15.24310694107493"}}, "geometry": {"type": "Point", "coordinates": [162.90898298364755, -60.63480924511179]}}, {"type": "Feature", "properties": {"norad_id": 58647, "name": "TIANMU-1 13", "group": "weather", "lat": 55.9303543297636, "lon": -14.636507043935042, "alt_km": 488.58151539757455, "timestamp": "2025-12-02T13:52:16.919583+00:00", "meta": {"OBJECT_NAME": "TIANMU-1 13", "OBJECT_ID": "2023-205C", "EPOCH": "2025-12-02T07:19:18.802272", "MEAN_MOTION": 15.24316375, "ECCENTRICITY": 0.00064718, "INCLINATION": 97.3632, "RA_OF_ASC_NODE": 356.1191, "ARG_OF_PERICENTER": 313.9787, "MEAN_ANOMALY": 46.0917, "EPHEMERIS_TYPE": 0, "CLASSIFICATION_TYPE": "U", "NORAD_CAT_ID": 58647, "ELEMENT_SET_NO": 999, "REV_AT_EPOCH": 10748, "BSTAR": 0.00030448243, "MEAN_MOTION_DOT": 7.379e-05, "MEAN_MOTION_DDOT": 0}, "tle": {"line1": "1 58647U 23205C   25336.30507873  .00007379  00000+0  30448-3 0  9991", "line2": "2 58647  97.3632 356.1191 0006471 313.9787  46.0917 15.24316375107488"}}, "geometry": {"type": "Point", "coordinates": [-14.636507043935042, 55.9303543297636]}}, {"type": "Feature", "properties": {"norad_id": 58648, "name": "TIANMU-1 14", "group": "weather", "lat": 31.364967035066478, "lon": -179.73781362167745, "alt_km": 496.19653801454024, "timestamp": "2025-12-02T13:52:16.919593+00:00", "meta": {"OBJECT_NAME": "TIANMU-1 14", "OBJECT_ID": "2023-205D", "EPOCH": "2025-12-02T06:55:14.889792", "MEAN_MOTION": 15.24300794, "ECCENTRICITY": 0.00073989, "INCLINATION": 97.3564, "RA_OF_ASC_NODE": 355.4611, "ARG_OF_PERICENTER": 318.0438, "MEAN_ANOMALY": 42.0232, "EPHEMERIS_TYPE": 0, "CLASSIFICATION_TYPE": "U", "NORAD_CAT_ID": 58648, "ELEMENT_SET_NO": 999, "REV_AT_EPOCH": 10748, "BSTAR": 0.00032215086, "MEAN_MOTION_DOT": 7.809e-05, "MEAN_MOTION_DDOT": 0}, "tle": {"line1": "1 58648U 23205D   25336.28836678  .00007809  00000+0  32215-3 0  9999", "line2": "2 58648  97.3564 355.4611 0007398 318.0438  42.0232 15.24300794107484"}}, "geometry": {"type": "Point", "coordinates": [-179.73781362167745, 31.364967035066478]}}, {"type": "Feature", "properties": {"norad_id": 58660, "name": "TIANMU-1 19", "group": "weather", "lat": -75.32922298244716, "lon": 117.57673407607729, "alt_km": 487.72082904243325, "timestamp": "2025-12-02T13:52:16.919603+00:00", "meta": {"OBJECT_NAME": "TIANMU-1 19", "OBJECT_ID": "2023-208A", "EPOCH": "2025-12-02T07:55:14.153088", "MEAN_MOTION": 15.27547329, "ECCENTRICITY": 0.00041623, "INCLINATION": 97.4389, "RA_OF_ASC_NODE": 87.3902, "ARG_OF_PERICENTER": 299.3452, "MEAN_ANOMALY": 60.7371, "EPHEMERIS_TYPE": 0, "CLASSIFICATION_TYPE": "U", "NORAD_CAT_ID": 58660, "ELEMENT_SET_NO": 999, "REV_AT_EPOCH": 10723, "BSTAR": 0.00044233817, "MEAN_MOTION_DOT": 0.00011853, "MEAN_MOTION_DDOT": 0}, "tle": {"line1": "1 58660U 23208A   25336.33002492  .00011853  00000+0  44234-3 0  9999", "line2": "2 58660  97.4389  87.3902 0004162 299.3452  60.7371 15.27547329107235"}}, "geometry": {"type": "Point", "coordinates": [117.57673407607729, -75.32922298244716]}}, {"type": "Feature", "properties": {"norad_id": 58661, "name": "TIANMU-1 20", "group": "weather", "lat": -46.13659008036297, "lon": 95.8818479557227, "alt_km": 481.93443829706575, "timestamp": "2025-12-02T13:52:16.919613+00:00", "meta": {"OBJECT_NAME": "TIANMU-1 20", "OBJECT_ID": "2023-208B", "EPOCH": "2025-12-02T06:13:12.670752", "MEAN_MOTION": 15.2873893, "ECCENTRICITY": 0.00065218, "INCLINATION": 97.4326, "RA_OF_ASC_NODE": 87.7568, "ARG_OF_PERICENTER": 309.3261, "MEAN_ANOMALY": 50.74, "EPHEMERIS_TYPE": 0, "CLASSIFICATION_TYPE": "U", "NORAD_CAT_ID": 58661, "ELEMENT_SET_NO": 999, "REV_AT_EPOCH": 10729, "BSTAR": 0.00042285583, "MEAN_MOTION_DOT": 0.00011751, "MEAN_MOTION_DDOT": 0}, "tle": {"line1": "1 58661U 23208B   25336.25917443  .00011751  00000+0  42286-3 0  9994", "line2": "2 58661  97.4326  87.7568 0006521 309.3261  50.7400 15.28738930107299"}}, "geometry": {"type": "Point", "coordinates": [95.8818479557227, -46.13659008036297]}}]}